[{"OBJECT_NAME":"LEMUR-2-PETERG","OBJECT_ID":"2017-042S","EPOCH":"2026-03-09T11:34:35.656032","MEAN_MOTION":15.29611459,"ECCENTRICITY":0.00037,"INCLINATION":97.398,"RA_OF_ASC_NODE":253.6596,"ARG_OF_PERICENTER":341.6938,"MEAN_ANOMALY":18.4169,"EPHEMERIS_TYPE":0,"CLASSIFICATION_TYPE":"U","NORAD_CAT_ID":42841,"ELEMENT_SET_NO":999,"REV_AT_EPOCH":47317,"BSTAR":0.00081076471,"MEAN_MOTION_DOT":0.0002324,"MEAN_MOTION_DDOT":0},{"OBJECT_NAME":"STARLINK-34502","OBJECT_ID":"2025-139S","EPOCH":"2026-03-09T12:53:18.801024","MEAN_MOTION":15.30205846,"ECCENTRICITY":0.00013678,"INCLINATION":53.159,"RA_OF_ASC_NODE":127.5402,"ARG_OF_PERICENTER":86.7466,"MEAN_ANOMALY":273.3692,"EPHEMERIS_TYPE":0,"CLASSIFICATION_TYPE":"U","NORAD_CAT_ID":64680,"ELEMENT_SET_NO":999,"REV_AT_EPOCH":4026,"BSTAR":0.00079722295,"MEAN_MOTION_DOT":0.00023331,"MEAN_MOTION_DDOT":0}]
